{
  "type": "FeatureCollection",
  "features": [
    {
      "type": "Feature",
      "properties": {
        "norad_id": 2807,
        "name": "OPS 7218 (TRANSIT 16)",
        "group": "nnss",
        "lat": 73.45807325464769,
        "lon": 172.67585057525594,
        "alt_km": 1046.5231883484548,
        "timestamp": "2025-12-19T22:41:52.660243+00:00",
        "meta_object_name": "OPS 7218 (TRANSIT 16)",
        "meta_object_id": "1967-048A",
        "meta_epoch": "2025-12-19T10:34:01.367904",
        "meta_mean_motion": 13.50723636,
        "meta_eccentricity": 0.0022134,
        "meta_inclination": 89.6731,
        "meta_ra_of_asc_node": 353.7939,
        "meta_arg_of_pericenter": 96.2167,
        "meta_mean_anomaly": 73.8764,
        "meta_ephemeris_type": 0,
        "meta_classification_type": "U",
        "meta_norad_cat_id": 2807,
        "meta_element_set_no": 999,
        "meta_rev_at_epoch": 88366,
        "meta_bstar": 0.00015972,
        "meta_mean_motion_dot": 1.13e-06,
        "meta_mean_motion_ddot": 0,
        "tle_line1": "1 02807U 67048A   25353.44029361  .00000113  00000+0  15972-3 0  9990",
        "tle_line2": "2 02807  89.6731 353.7939 0022134  96.2167  73.8764 13.50723636883667"
      },
      "geometry": {
        "type": "Point",
        "coordinates": [
          172.67585057525594,
          73.45807325464769
        ]
      }
    },
    {
      "type": "Feature",
      "properties": {
        "norad_id": 2965,
        "name": "OPS 4947 (TRANSIT 17)",
        "group": "nnss",
        "lat": -62.026205588606516,
        "lon": -154.69871112832342,
        "alt_km": 1036.4193007828835,
        "timestamp": "2025-12-19T22:41:52.660265+00:00",
        "meta_object_name": "OPS 4947 (TRANSIT 17)",
        "meta_object_id": "1967-092A",
        "meta_epoch": "2025-12-19T13:26:52.276128",
        "meta_mean_motion": 13.53455287,
        "meta_eccentricity": 0.0046652,
        "meta_inclination": 89.2489,
        "meta_ra_of_asc_node": 23.9154,
        "meta_arg_of_pericenter": 214.1761,
        "meta_mean_anomaly": 310.7216,
        "meta_ephemeris_type": 0,
        "meta_classification_type": "U",
        "meta_norad_cat_id": 2965,
        "meta_element_set_no": 999,
        "meta_rev_at_epoch": 87189,
        "meta_bstar": 0.00020041,
        "meta_mean_motion_dot": 1.47e-06,
        "meta_mean_motion_ddot": 0,
        "tle_line1": "1 02965U 67092A   25353.56032727  .00000147  00000+0  20041-3 0  9997",
        "tle_line2": "2 02965  89.2489  23.9154 0046652 214.1761 310.7216 13.53455287871899"
      },
      "geometry": {
        "type": "Point",
        "coordinates": [
          -154.69871112832342,
          -62.026205588606516
        ]
      }
    },
    {
      "type": "Feature",
      "properties": {
        "norad_id": 3133,
        "name": "OPS 7034 (TRANSIT 18)",
        "group": "nnss",
        "lat": -18.33115497341555,
        "lon": -86.33125999861558,
        "alt_km": 1125.4551875663956,
        "timestamp": "2025-12-19T22:41:52.660279+00:00",
        "meta_object_name": "OPS 7034 (TRANSIT 18)",
        "meta_object_id": "1968-012A",
        "meta_epoch": "2025-12-19T12:58:57.137376",
        "meta_mean_motion": 13.51567181,
        "meta_eccentricity": 0.007451,
        "meta_inclination": 90.0283,
        "meta_ra_of_asc_node": 273.6582,
        "meta_arg_of_pericenter": 149.5169,
        "meta_mean_anomaly": 23.9801,
        "meta_ephemeris_type": 0,
        "meta_classification_type": "U",
        "meta_norad_cat_id": 3133,
        "meta_element_set_no": 999,
        "meta_rev_at_epoch": 57010,
        "meta_bstar": 0.00014664,
        "meta_mean_motion_dot": 1.07e-06,
        "meta_mean_motion_ddot": 0,
        "tle_line1": "1 03133U 68012A   25353.54093909  .00000107  00000+0  14664-3 0  9995",
        "tle_line2": "2 03133  90.0283 273.6582 0074510 149.5169  23.9801 13.51567181570103"
      },
      "geometry": {
        "type": "Point",
        "coordinates": [
          -86.33125999861558,
          -18.33115497341555
        ]
      }
    },
    {
      "type": "Feature",
      "properties": {
        "norad_id": 4507,
        "name": "NNSS 19 (TRANSIT 19)",
        "group": "nnss",
        "lat": -52.007709507501154,
        "lon": -125.45470481029614,
        "alt_km": 970.8206993920721,
        "timestamp": "2025-12-19T22:41:52.660291+00:00",
        "meta_object_name": "NNSS 19 (TRANSIT 19)",
        "meta_object_id": "1970-067A",
        "meta_epoch": "2025-12-19T10:30:40.010112",
        "meta_mean_motion": 13.51316335,
        "meta_eccentricity": 0.0170266,
        "meta_inclination": 90.0051,
        "meta_ra_of_asc_node": 234.5385,
        "meta_arg_of_pericenter": 273.7805,
        "meta_mean_anomaly": 84.3893,
        "meta_ephemeris_type": 0,
        "meta_classification_type": "U",
        "meta_norad_cat_id": 4507,
        "meta_element_set_no": 999,
        "meta_rev_at_epoch": 72312,
        "meta_bstar": 0.00012075,
        "meta_mean_motion_dot": 9.3e-07,
        "meta_mean_motion_ddot": 0,
        "tle_line1": "1 04507U 70067A   25353.43796308  .00000093  00000+0  12075-3 0  9993",
        "tle_line2": "2 04507  90.0051 234.5385 0170266 273.7805  84.3893 13.51316335723128"
      },
      "geometry": {
        "type": "Point",
        "coordinates": [
          -125.45470481029614,
          -52.007709507501154
        ]
      }
    },
    {
      "type": "Feature",
      "properties": {
        "norad_id": 6909,
        "name": "NNSS 20 (TRANSIT 20)",
        "group": "nnss",
        "lat": -2.4093471408484315,
        "lon": 74.95222200499815,
        "alt_km": 1063.2204123364863,
        "timestamp": "2025-12-19T22:41:52.660302+00:00",
        "meta_object_name": "NNSS 20 (TRANSIT 20)",
        "meta_object_id": "1973-081A",
        "meta_epoch": "2025-12-19T11:19:12.247392",
        "meta_mean_motion": 13.71437552,
        "meta_eccentricity": 0.0156459,
        "meta_inclination": 89.8562,
        "meta_ra_of_asc_node": 254.9533,
        "meta_arg_of_pericenter": 58.3821,
        "meta_mean_anomaly": 303.2502,
        "meta_ephemeris_type": 0,
        "meta_classification_type": "U",
        "meta_norad_cat_id": 6909,
        "meta_element_set_no": 999,
        "meta_rev_at_epoch": 80453,
        "meta_bstar": 0.00023103,
        "meta_mean_motion_dot": 2.38e-06,
        "meta_mean_motion_ddot": 0,
        "tle_line1": "1 06909U 73081A   25353.47166953  .00000238  00000+0  23103-3 0  9996",
        "tle_line2": "2 06909  89.8562 254.9533 0156459  58.3821 303.2502 13.71437552804535"
      },
      "geometry": {
        "type": "Point",
        "coordinates": [
          74.95222200499815,
          -2.4093471408484315
        ]
      }
    },
    {
      "type": "Feature",
      "properties": {
        "norad_id": 10457,
        "name": "TRANSAT",
        "group": "nnss",
        "lat": -70.83592995190789,
        "lon": -100.64484346502991,
        "alt_km": 1080.772127750045,
        "timestamp": "2025-12-19T22:41:52.660313+00:00",
        "meta_object_name": "TRANSAT",
        "meta_object_id": "1977-106A",
        "meta_epoch": "2025-12-19T12:36:55.029888",
        "meta_mean_motion": 13.48944557,
        "meta_eccentricity": 0.0026036,
        "meta_inclination": 89.6481,
        "meta_ra_of_asc_node": 78.3568,
        "meta_arg_of_pericenter": 170.0412,
        "meta_mean_anomaly": 201.5276,
        "meta_ephemeris_type": 0,
        "meta_classification_type": "U",
        "meta_norad_cat_id": 10457,
        "meta_element_set_no": 999,
        "meta_rev_at_epoch": 36835,
        "meta_bstar": 0.00010505,
        "meta_mean_motion_dot": 7.6e-07,
        "meta_mean_motion_ddot": 0,
        "tle_line1": "1 10457U 77106A   25353.52563692  .00000076  00000+0  10505-3 0  9990",
        "tle_line2": "2 10457  89.6481  78.3568 0026036 170.0412 201.5276 13.48944557368352"
      },
      "geometry": {
        "type": "Point",
        "coordinates": [
          -100.64484346502991,
          -70.83592995190789
        ]
      }
    },
    {
      "type": "Feature",
      "properties": {
        "norad_id": 12458,
        "name": "NOVA 1",
        "group": "nnss",
        "lat": -27.402793391364877,
        "lon": -88.64016987230411,
        "alt_km": 1184.1333937968393,
        "timestamp": "2025-12-19T22:41:52.660324+00:00",
        "meta_object_name": "NOVA 1",
        "meta_object_id": "1981-044A",
        "meta_epoch": "2025-12-19T17:03:49.326048",
        "meta_mean_motion": 13.23279008,
        "meta_eccentricity": 0.0015872,
        "meta_inclination": 89.8528,
        "meta_ra_of_asc_node": 91.2868,
        "meta_arg_of_pericenter": 86.8826,
        "meta_mean_anomaly": 82.5521,
        "meta_ephemeris_type": 0,
        "meta_classification_type": "U",
        "meta_norad_cat_id": 12458,
        "meta_element_set_no": 999,
        "meta_rev_at_epoch": 15278,
        "meta_bstar": 9.9067e-05,
        "meta_mean_motion_dot": 5.1e-07,
        "meta_mean_motion_ddot": 0,
        "tle_line1": "1 12458U 81044A   25353.71098757  .00000051  00000+0  99067-4 0  9999",
        "tle_line2": "2 12458  89.8528  91.2868 0015872  86.8826  82.5521 13.23279008152788"
      },
      "geometry": {
        "type": "Point",
        "coordinates": [
          -88.64016987230411,
          -27.402793391364877
        ]
      }
    }
  ]
}